[{"OBJECT_NAME":"UNKNOWN","OBJECT_ID":"","EPOCH":"2026-03-01T16:15:45.641376","MEAN_MOTION":14.48655082,"ECCENTRICITY":0.00312058,"INCLINATION":81.2129,"RA_OF_ASC_NODE":50.3726,"ARG_OF_PERICENTER":47.9307,"MEAN_ANOMALY":312.4531,"EPHEMERIS_TYPE":0,"CLASSIFICATION_TYPE":"U","NORAD_CAT_ID":270220,"ELEMENT_SET_NO":999,"REV_AT_EPOCH":32318,"BSTAR":0.0023456899,"MEAN_MOTION_DOT":8.902e-5,"MEAN_MOTION_DDOT":0},{"OBJECT_NAME":"UNKNOWN","OBJECT_ID":"","EPOCH":"2026-03-08T07:15:03.021120","MEAN_MOTION":11.85961955,"ECCENTRICITY":0.10490802,"INCLINATION":83.1543,"RA_OF_ASC_NODE":70.6375,"ARG_OF_PERICENTER":96.5063,"MEAN_ANOMALY":275.6306,"EPHEMERIS_TYPE":0,"CLASSIFICATION_TYPE":"U","NORAD_CAT_ID":270221,"ELEMENT_SET_NO":999,"REV_AT_EPOCH":26995,"BSTAR":0.0026455424,"MEAN_MOTION_DOT":8.6e-6,"MEAN_MOTION_DDOT":0},{"OBJECT_NAME":"UNKNOWN","OBJECT_ID":"","EPOCH":"2026-02-28T03:10:58.338624","MEAN_MOTION":12.95561524,"ECCENTRICITY":0.00354303,"INCLINATION":90.2548,"RA_OF_ASC_NODE":3.9939,"ARG_OF_PERICENTER":128.6349,"MEAN_ANOMALY":231.7951,"EPHEMERIS_TYPE":0,"CLASSIFICATION_TYPE":"U","NORAD_CAT_ID":270222,"ELEMENT_SET_NO":999,"REV_AT_EPOCH":29274,"BSTAR":0.003393815,"MEAN_MOTION_DOT":9.69e-6,"MEAN_MOTION_DDOT":0},{"OBJECT_NAME":"UNKNOWN","OBJECT_ID":"","EPOCH":"2026-02-28T07:46:42.477600","MEAN_MOTION":13.40133583,"ECCENTRICITY":0.05291568,"INCLINATION":73.146,"RA_OF_ASC_NODE":285.262,"ARG_OF_PERICENTER":90.9938,"MEAN_ANOMALY":275.1802,"EPHEMERIS_TYPE":0,"CLASSIFICATION_TYPE":"U","NORAD_CAT_ID":270224,"ELEMENT_SET_NO":999,"REV_AT_EPOCH":29844,"BSTAR":0.0038391988,"MEAN_MOTION_DOT":4.758e-5,"MEAN_MOTION_DDOT":0},{"OBJECT_NAME":"UNKNOWN","OBJECT_ID":"","EPOCH":"2026-02-28T12:23:15.408384","MEAN_MOTION":11.67016358,"ECCENTRICITY":0.03975867,"INCLINATION":101.2591,"RA_OF_ASC_NODE":152.9596,"ARG_OF_PERICENTER":62.4244,"MEAN_ANOMALY":301.6581,"EPHEMERIS_TYPE":0,"CLASSIFICATION_TYPE":"U","NORAD_CAT_ID":270226,"ELEMENT_SET_NO":999,"REV_AT_EPOCH":26414,"BSTAR":-0.00048211355,"MEAN_MOTION_DOT":-6.3e-7,"MEAN_MOTION_DDOT":0},{"OBJECT_NAME":"UNKNOWN","OBJECT_ID":"","EPOCH":"2026-03-06T13:24:22.663296","MEAN_MOTION":13.91222755,"ECCENTRICITY":0.01417585,"INCLINATION":98.9375,"RA_OF_ASC_NODE":349.6785,"ARG_OF_PERICENTER":177.8229,"MEAN_ANOMALY":182.3578,"EPHEMERIS_TYPE":0,"CLASSIFICATION_TYPE":"U","NORAD_CAT_ID":270229,"ELEMENT_SET_NO":999,"REV_AT_EPOCH":31365,"BSTAR":0.00064311455,"MEAN_MOTION_DOT":8.37e-6,"MEAN_MOTION_DDOT":0},{"OBJECT_NAME":"UNKNOWN","OBJECT_ID":"","EPOCH":"2026-02-24T03:58:03.711936","MEAN_MOTION":12.20961756,"ECCENTRICITY":0.03216827,"INCLINATION":103.0468,"RA_OF_ASC_NODE":28.2816,"ARG_OF_PERICENTER":301.112,"MEAN_ANOMALY":55.8739,"EPHEMERIS_TYPE":0,"CLASSIFICATION_TYPE":"U","NORAD_CAT_ID":270230,"ELEMENT_SET_NO":999,"REV_AT_EPOCH":27207,"BSTAR":0.018435701,"MEAN_MOTION_DOT":2.229e-5,"MEAN_MOTION_DDOT":0},{"OBJECT_NAME":"UNKNOWN","OBJECT_ID":"","EPOCH":"2026-02-26T10:59:09.781440","MEAN_MOTION":12.9221751,"ECCENTRICITY":0.07024324,"INCLINATION":72.9697,"RA_OF_ASC_NODE":316.2208,"ARG_OF_PERICENTER":264.7321,"MEAN_ANOMALY":87.3285,"EPHEMERIS_TYPE":0,"CLASSIFICATION_TYPE":"U","NORAD_CAT_ID":270232,"ELEMENT_SET_NO":999,"REV_AT_EPOCH":28777,"BSTAR":0.0008307914,"MEAN_MOTION_DOT":6.59e-6,"MEAN_MOTION_DDOT":0},{"OBJECT_NAME":"UNKNOWN","OBJECT_ID":"","EPOCH":"2026-03-06T05:49:21.947232","MEAN_MOTION":14.38489332,"ECCENTRICITY":0.00332739,"INCLINATION":98.6271,"RA_OF_ASC_NODE":71.1442,"ARG_OF_PERICENTER":118.9165,"MEAN_ANOMALY":241.5366,"EPHEMERIS_TYPE":0,"CLASSIFICATION_TYPE":"U","NORAD_CAT_ID":270233,"ELEMENT_SET_NO":999,"REV_AT_EPOCH":32049,"BSTAR":0.00021072844,"MEAN_MOTION_DOT":6.03e-6,"MEAN_MOTION_DDOT":0},{"OBJECT_NAME":"UNKNOWN","OBJECT_ID":"","EPOCH":"2026-03-05T01:37:32.697120","MEAN_MOTION":12.95518514,"ECCENTRICITY":0.0031585,"INCLINATION":90.2413,"RA_OF_ASC_NODE":1.2076,"ARG_OF_PERICENTER":79.7442,"MEAN_ANOMALY":280.7237,"EPHEMERIS_TYPE":0,"CLASSIFICATION_TYPE":"U","NORAD_CAT_ID":270236,"ELEMENT_SET_NO":999,"REV_AT_EPOCH":28888,"BSTAR":4.5814277e-5,"MEAN_MOTION_DOT":2.1e-7,"MEAN_MOTION_DDOT":0},{"OBJECT_NAME":"UNKNOWN","OBJECT_ID":"","EPOCH":"2026-03-02T06:56:30.146784","MEAN_MOTION":12.95994703,"ECCENTRICITY":0.00192024,"INCLINATION":90.2502,"RA_OF_ASC_NODE":4.8145,"ARG_OF_PERICENTER":178.6453,"MEAN_ANOMALY":181.4723,"EPHEMERIS_TYPE":0,"CLASSIFICATION_TYPE":"U","NORAD_CAT_ID":270237,"ELEMENT_SET_NO":999,"REV_AT_EPOCH":28742,"BSTAR":-0.0024206232,"MEAN_MOTION_DOT":-6.81e-6,"MEAN_MOTION_DDOT":0},{"OBJECT_NAME":"UNKNOWN","OBJECT_ID":"","EPOCH":"2026-03-06T09:54:57.814560","MEAN_MOTION":12.8082283,"ECCENTRICITY":0.01193617,"INCLINATION":63.5253,"RA_OF_ASC_NODE":330.4845,"ARG_OF_PERICENTER":65.1016,"MEAN_ANOMALY":296.233,"EPHEMERIS_TYPE":0,"CLASSIFICATION_TYPE":"U","NORAD_CAT_ID":270238,"ELEMENT_SET_NO":999,"REV_AT_EPOCH":28519,"BSTAR":0.0024073954,"MEAN_MOTION_DOT":4.96e-6,"MEAN_MOTION_DDOT":0},{"OBJECT_NAME":"UNKNOWN","OBJECT_ID":"","EPOCH":"2026-03-09T01:10:55.714944","MEAN_MOTION":12.64269594,"ECCENTRICITY":0.00607518,"INCLINATION":82.4314,"RA_OF_ASC_NODE":189.2582,"ARG_OF_PERICENTER":90.2488,"MEAN_ANOMALY":270.5566,"EPHEMERIS_TYPE":0,"CLASSIFICATION_TYPE":"U","NORAD_CAT_ID":270240,"ELEMENT_SET_NO":999,"REV_AT_EPOCH":27933,"BSTAR":0.024379338,"MEAN_MOTION_DOT":4.521e-5,"MEAN_MOTION_DDOT":0},{"OBJECT_NAME":"UNKNOWN","OBJECT_ID":"","EPOCH":"2026-02-28T02:14:24.954432","MEAN_MOTION":12.94426915,"ECCENTRICITY":0.00359025,"INCLINATION":90.2485,"RA_OF_ASC_NODE":3.8526,"ARG_OF_PERICENTER":178.6784,"MEAN_ANOMALY":181.4436,"EPHEMERIS_TYPE":0,"CLASSIFICATION_TYPE":"U","NORAD_CAT_ID":270241,"ELEMENT_SET_NO":999,"REV_AT_EPOCH":28659,"BSTAR":0.00038297892,"MEAN_MOTION_DOT":1.14e-6,"MEAN_MOTION_DDOT":0},{"OBJECT_NAME":"UNKNOWN","OBJECT_ID":"","EPOCH":"2026-03-02T03:05:39.187392","MEAN_MOTION":12.98561356,"ECCENTRICITY":0.00431669,"INCLINATION":90.2426,"RA_OF_ASC_NODE":5.1055,"ARG_OF_PERICENTER":292.1737,"MEAN_ANOMALY":67.4806,"EPHEMERIS_TYPE":0,"CLASSIFICATION_TYPE":"U","NORAD_CAT_ID":270242,"ELEMENT_SET_NO":999,"REV_AT_EPOCH":28755,"BSTAR":0.0022217592,"MEAN_MOTION_DOT":6.65e-6,"MEAN_MOTION_DDOT":0},{"OBJECT_NAME":"UNKNOWN","OBJECT_ID":"","EPOCH":"2026-02-28T14:14:25.322496","MEAN_MOTION":12.78837087,"ECCENTRICITY":0.00714545,"INCLINATION":66.0661,"RA_OF_ASC_NODE":167.2435,"ARG_OF_PERICENTER":347.0077,"MEAN_ANOMALY":12.9094,"EPHEMERIS_TYPE":0,"CLASSIFICATION_TYPE":"U","NORAD_CAT_ID":270247,"ELEMENT_SET_NO":999,"REV_AT_EPOCH":28200,"BSTAR":0.0012042083,"MEAN_MOTION_DOT":2.12e-6,"MEAN_MOTION_DDOT":0},{"OBJECT_NAME":"UNKNOWN","OBJECT_ID":"","EPOCH":"2026-03-05T12:38:45.734208","MEAN_MOTION":12.95402166,"ECCENTRICITY":0.0030425,"INCLINATION":90.2437,"RA_OF_ASC_NODE":4.188,"ARG_OF_PERICENTER":107.3319,"MEAN_ANOMALY":253.1132,"EPHEMERIS_TYPE":0,"CLASSIFICATION_TYPE":"U","NORAD_CAT_ID":270249,"ELEMENT_SET_NO":999,"REV_AT_EPOCH":28516,"BSTAR":0.00041958821,"MEAN_MOTION_DOT":1.26e-6,"MEAN_MOTION_DDOT":0},{"OBJECT_NAME":"UNKNOWN","OBJECT_ID":"","EPOCH":"2026-02-16T03:58:24.295872","MEAN_MOTION":12.59811593,"ECCENTRICITY":0.01640397,"INCLINATION":82.466,"RA_OF_ASC_NODE":210.1019,"ARG_OF_PERICENTER":179.1904,"MEAN_ANOMALY":180.9483,"EPHEMERIS_TYPE":0,"CLASSIFICATION_TYPE":"U","NORAD_CAT_ID":270250,"ELEMENT_SET_NO":999,"REV_AT_EPOCH":27366,"BSTAR":0.01273464,"MEAN_MOTION_DOT":2.33e-5,"MEAN_MOTION_DDOT":0},{"OBJECT_NAME":"UNKNOWN","OBJECT_ID":"","EPOCH":"2026-03-05T00:35:38.435424","MEAN_MOTION":11.49642232,"ECCENTRICITY":0.07489902,"INCLINATION":102.3391,"RA_OF_ASC_NODE":344.7055,"ARG_OF_PERICENTER":33.5127,"MEAN_ANOMALY":331.1046,"EPHEMERIS_TYPE":0,"CLASSIFICATION_TYPE":"U","NORAD_CAT_ID":270251,"ELEMENT_SET_NO":999,"REV_AT_EPOCH":25287,"BSTAR":0.091496452,"MEAN_MOTION_DOT":7.869e-5,"MEAN_MOTION_DDOT":0},{"OBJECT_NAME":"UNKNOWN","OBJECT_ID":"","EPOCH":"2026-03-06T06:30:45.705312","MEAN_MOTION":13.0026476,"ECCENTRICITY":0.00333528,"INCLINATION":90.2474,"RA_OF_ASC_NODE":4.5417,"ARG_OF_PERICENTER":141.7377,"MEAN_ANOMALY":218.6121,"EPHEMERIS_TYPE":0,"CLASSIFICATION_TYPE":"U","NORAD_CAT_ID":270253,"ELEMENT_SET_NO":999,"REV_AT_EPOCH":28607,"BSTAR":0.0031198967,"MEAN_MOTION_DOT":9.52e-6,"MEAN_MOTION_DDOT":0},{"OBJECT_NAME":"UNKNOWN","OBJECT_ID":"","EPOCH":"2026-02-28T01:56:07.059264","MEAN_MOTION":12.93279353,"ECCENTRICITY":0.00322125,"INCLINATION":90.2503,"RA_OF_ASC_NODE":5.147,"ARG_OF_PERICENTER":195.9081,"MEAN_ANOMALY":164.1028,"EPHEMERIS_TYPE":0,"CLASSIFICATION_TYPE":"U","NORAD_CAT_ID":270256,"ELEMENT_SET_NO":999,"REV_AT_EPOCH":28491,"BSTAR":0.00016006426,"MEAN_MOTION_DOT":5.1e-7,"MEAN_MOTION_DDOT":0},{"OBJECT_NAME":"UNKNOWN","OBJECT_ID":"","EPOCH":"2026-03-05T05:51:14.304384","MEAN_MOTION":12.33950421,"ECCENTRICITY":0.02875935,"INCLINATION":82.4171,"RA_OF_ASC_NODE":263.8733,"ARG_OF_PERICENTER":200.2735,"MEAN_ANOMALY":158.6731,"EPHEMERIS_TYPE":0,"CLASSIFICATION_TYPE":"U","NORAD_CAT_ID":270258,"ELEMENT_SET_NO":999,"REV_AT_EPOCH":27027,"BSTAR":0.01607656,"MEAN_MOTION_DOT":2.291e-5,"MEAN_MOTION_DDOT":0},{"OBJECT_NAME":"UNKNOWN","OBJECT_ID":"","EPOCH":"2026-03-05T16:56:03.941952","MEAN_MOTION":12.09725851,"ECCENTRICITY":0.08987937,"INCLINATION":83.354,"RA_OF_ASC_NODE":228.995,"ARG_OF_PERICENTER":306.9685,"MEAN_ANOMALY":45.2294,"EPHEMERIS_TYPE":0,"CLASSIFICATION_TYPE":"U","NORAD_CAT_ID":270260,"ELEMENT_SET_NO":999,"REV_AT_EPOCH":26607,"BSTAR":0.0022809505,"MEAN_MOTION_DOT":7.22e-6,"MEAN_MOTION_DDOT":0},{"OBJECT_NAME":"UNKNOWN","OBJECT_ID":"","EPOCH":"2026-03-05T02:01:56.379648","MEAN_MOTION":12.95608595,"ECCENTRICITY":0.00329653,"INCLINATION":90.2504,"RA_OF_ASC_NODE":6.9323,"ARG_OF_PERICENTER":82.5634,"MEAN_ANOMALY":277.9229,"EPHEMERIS_TYPE":0,"CLASSIFICATION_TYPE":"U","NORAD_CAT_ID":270262,"ELEMENT_SET_NO":999,"REV_AT_EPOCH":28279,"BSTAR":2.36219e-5,"MEAN_MOTION_DOT":1.4e-7,"MEAN_MOTION_DDOT":0}]
